     2.11           N: GPS NAV DATA                         RINEX VERSION / TYPE
teqc  2018Dec12     gpsops              20220509 01:04:06UTCPGM / RUN BY / DATE
Linux 2.6.32-573.12.1.x86_64|x86_64|gcc -static|Linux 64|=+ COMMENT
CHPI                                    MARKER NAME         COMMENT
41609M003                               MARKER NUMBER       COMMENT
4164613.9484 -4162456.9866 -2445028.7316                    COMMENT
                                                            COMMENT
This data is provided as a public service by NASA/JPL.      COMMENT
No warranty is expressed or implied regarding suitability   COMMENT
for use.  For further information, contact:                 COMMENT
Dave Stowers, NASA/JPL m/s 238-600                          COMMENT
4800 Oak Grove Drive, Pasadena CA 91109 USA                 COMMENT
                                                            END OF HEADER
30 22  5  9  0  0  0.0-5.271388217807D-04-1.477928890381D-12 0.000000000000D+00
    3.600000000000D+01 2.359375000000D+01 5.098069497915D-09-3.018437379313D+00
    1.158565282822D-06 5.790802417323D-03 7.562339305878D-06 5.153770332336D+03
    8.640000000000D+04-3.725290298462D-08-2.663785998293D-01-3.539025783539D-08
    9.362613094416D-01 2.207187500000D+02-2.698932284769D+00-8.172483273875D-09
    6.535986535788D-11 1.000000000000D+00 2.209000000000D+03 0.000000000000D+00
    2.000000000000D+00 0.000000000000D+00 3.725290298462D-09 3.600000000000D+01
    7.921800000000D+04 4.000000000000D+00
15 22  5  9  0  0  0.0-6.275344640017D-05 2.955857780762D-12 0.000000000000D+00
    8.900000000000D+01-5.596875000000D+01 5.203788187237D-09-1.116692095508D+00
   -2.810731530190D-06 1.402736222371D-02 8.970499038696D-06 5.153782207489D+03
    8.640000000000D+04 1.378357410431D-07-1.458322475728D+00 3.762543201447D-07
    9.299187315563D-01 1.880312500000D+02 1.090119563741D+00-8.345704774960D-09
   -7.071723137082D-11 1.000000000000D+00 2.209000000000D+03 0.000000000000D+00
    2.000000000000D+00 0.000000000000D+00-1.071020960808D-08 8.900000000000D+01
    7.921800000000D+04 4.000000000000D+00
 7 22  5  9  0  0  0.0 3.218650817871D-04 4.547473508865D-13 0.000000000000D+00
    7.300000000000D+01 2.400000000000D+01 4.650908014701D-09-3.015707329869D+00
    1.093372702599D-06 1.603564922698D-02 7.694587111473D-06 5.153664625168D+03
    8.640000000000D+04 5.215406417847D-08-2.782741119194D-01-1.899898052216D-07
    9.511079222855D-01 2.240937500000D+02-2.270881657485D+00-7.796753337501D-09
    1.035757429169D-10 1.000000000000D+00 2.209000000000D+03 0.000000000000D+00
    2.000000000000D+00 0.000000000000D+00-1.117587089539D-08 7.300000000000D+01
    7.921800000000D+04 4.000000000000D+00
 5 22  5  9  0  0  0.0-8.115125820041D-05-1.364242052659D-12 0.000000000000D+00
    5.700000000000D+01-6.918750000000D+01 4.786985111430D-09 3.139447126231D-01
   -3.328546881676D-06 5.963230738416D-03 5.207955837250D-06 5.153717130661D+03
    8.640000000000D+04-5.587935447693D-09-2.419575765614D+00 4.656612873077D-08
    9.606056867741D-01 2.774687500000D+02 1.016145326303D+00-8.378563286506D-09
   -1.128618440060D-10 1.000000000000D+00 2.209000000000D+03 0.000000000000D+00
    2.000000000000D+00 0.000000000000D+00-1.117587089539D-08 5.700000000000D+01
    7.921800000000D+04 4.000000000000D+00
 6 22  5  9  0  0  0.0 2.960981801152D-04 1.443822839065D-11 0.000000000000D+00
    8.500000000000D+01 1.565625000000D+01 4.099456473103D-09-2.108591027806D+00
    9.220093488693D-07 2.595188561827D-03 4.798173904419D-06 5.153721576691D+03
    8.640000000000D+04 1.862645149231D-09 2.863069576420D+00 1.676380634308D-08
    9.872233246941D-01 3.038437500000D+02-8.637886198975D-01-7.906043604165D-09
    1.910793877949D-10 1.000000000000D+00 2.209000000000D+03 0.000000000000D+00
    2.000000000000D+00 0.000000000000D+00 3.725290298462D-09 8.500000000000D+01
    7.921800000000D+04 4.000000000000D+00
20 22  5  9  0  0  0.0 5.154577083886D-04-2.273736754432D-13 0.000000000000D+00
    5.600000000000D+01-6.678125000000D+01 5.178072830375D-09-1.316198505317D+00
   -3.254041075706D-06 4.804121796042D-03 4.876405000687D-06 5.153572122574D+03
    8.640000000000D+04 6.705522537231D-08-2.535102448758D+00 5.587935447693D-09
    9.429676536106D-01 2.752187500000D+02-3.121274588152D+00-8.522497853387D-09
    4.643050544549D-11 1.000000000000D+00 2.209000000000D+03 0.000000000000D+00
    2.000000000000D+00 0.000000000000D+00-8.381903171539D-09 5.600000000000D+01
    7.921800000000D+04 4.000000000000D+00
12 22  5  9  0  0  0.0-2.125184983015D-04-5.798028723802D-12 0.000000000000D+00
    7.700000000000D+01 2.978125000000D+01 4.196246219070D-09 2.659145924970D+00
    1.512467861176D-06 8.675763849169D-03 6.925314664841D-06 5.153551738739D+03
    8.640000000000D+04 1.024454832077D-07 8.345367083179D-01-3.911554813385D-08
    9.694966079738D-01 2.484375000000D+02 1.283999491138D+00-7.716392847306D-09
   -2.121516941125D-10 1.000000000000D+00 2.209000000000D+03 0.000000000000D+00
    2.000000000000D+00 0.000000000000D+00-1.257285475731D-08 7.700000000000D+01
    7.921800000000D+04 4.000000000000D+00
 1 22  5  9  0  0  0.0 3.671930171549D-04-8.412825991400D-12 0.000000000000D+00
    6.100000000000D+01 9.718750000000D+00 4.024810506656D-09-2.345915160257D+00
    3.390014171600D-07 1.185498049017D-02 4.775822162628D-06 5.153667602539D+03
    8.640000000000D+04 2.160668373108D-07 2.871343969813D+00-5.960464477539D-08
    9.878799262156D-01 2.994687500000D+02 9.015121598743D-01-7.800324914842D-09
    2.835832409517D-10 1.000000000000D+00 2.209000000000D+03 0.000000000000D+00
    2.000000000000D+00 0.000000000000D+00 5.122274160385D-09 6.100000000000D+01
    7.921800000000D+04 4.000000000000D+00
24 22  5  9  0  0  0.0 2.444013953209D-04-6.480149750132D-12 0.000000000000D+00
    7.300000000000D+01 1.931250000000D+01 5.011280168505D-09-2.041355052483D+00
    1.017004251480D-06 1.245048746932D-02 7.739290595055D-06 5.153685085297D+03
    8.640000000000D+04 8.940696716309D-08-3.623712992020D-01-1.676380634308D-07
    9.345582489709D-01 2.160312500000D+02 8.140132491821D-01-7.996404510916D-09
    1.875078104529D-10 1.000000000000D+00 2.209000000000D+03 0.000000000000D+00
    2.000000000000D+00 0.000000000000D+00 2.793967723846D-09 7.300000000000D+01
    8.020200000000D+04 4.000000000000D+00
 2 22  5  9  0  0  0.0-6.532766856253D-04 0.000000000000D+00 0.000000000000D+00
    4.200000000000D+01 3.025000000000D+01 4.428398746297D-09-2.194151630560D+00
    1.935288310051D-06 2.045482071117D-02 4.297122359276D-06 5.153662508011D+03
    8.640000000000D+04 2.123415470123D-07 2.780389317461D+00 2.477318048477D-07
    9.660135711884D-01 2.957812500000D+02-1.419976712804D+00-7.888900032923D-09
    2.685826161155D-10 1.000000000000D+00 2.209000000000D+03 0.000000000000D+00
    2.000000000000D+00 0.000000000000D+00-1.769512891769D-08 4.200000000000D+01
    8.131800000000D+04 4.000000000000D+00
11 22  5  9  0  0  0.0-2.748612314463D-05 5.229594535194D-12 0.000000000000D+00
    1.040000000000D+02 1.234375000000D+01 4.672694636487D-09-2.243491579801D-01
    7.152557373047D-07 3.374632215127D-04 4.412606358528D-06 5.153573785782D+03
    8.640000000000D+04-4.470348358154D-08 2.913160087485D+00-2.048909664154D-08
    9.630497708428D-01 2.968437500000D+02 2.859159638195D+00-8.262844180626D-09
    2.085801167705D-10 1.000000000000D+00 2.209000000000D+03 0.000000000000D+00
    2.000000000000D+00 6.300000000000D+01-8.381903171539D-09 1.040000000000D+02
    8.230800000000D+04 4.000000000000D+00
14 22  5  9  1 29 36.0-1.073568128049D-04-1.932676241267D-12 0.000000000000D+00
    8.000000000000D+00 2.993750000000D+01 4.611263506206D-09-2.846638999266D+00
    1.674517989159D-06 1.830094261095D-03 7.025897502899D-06 5.153657266617D+03
    9.177600000000D+04-1.862645149231D-08 8.018916826016D-01 2.048909664154D-08
    9.529143759544D-01 2.403750000000D+02 3.083845412163D+00-8.074622054705D-09
   -1.742929742877D-10 1.000000000000D+00 2.209000000000D+03 0.000000000000D+00
    2.000000000000D+00 0.000000000000D+00-7.916241884232D-09 2.640000000000D+02
    8.461800000000D+04 4.000000000000D+00
